NORAD_CAT_ID,OBJECT_NAME,OBJECT_TYPE,EPOCH,MEAN_MOTION,ECCENTRICITY,INCLINATION,RA_OF_ASC_NODE,ARG_OF_PERICENTER,MEAN_ANOMALY,BSTAR,MEAN_MOTION_DOT,MEAN_MOTION_DDOT,TLE_LINE0,TLE_LINE1,TLE_LINE2,SEMIMAJOR_AXIS,PERIOD,APOGEE,PERIGEE,DECAYED
54792.0,STARLINK-5431,PAYLOAD,2024-04-15 17:58:50,15.08853962,0.000145,53.2171,274.4907,94.7758,265.34,0.00019842,2.872e-05,0.0,0 STARLINK-5431,1 54792U 22175AL  24106.74919925  .00002872  00000-0  19842-3 0  9999,2 54792  53.2171 274.4907 0001450  94.7758 265.3400 15.08853962 73154,6917.838,95.437,540.706,538.7,0.0
54792.0,STARLINK-5431,PAYLOAD,2024-04-16 14:38:51,15.08851402,0.0001388,53.2163,270.6241,93.5691,266.546,2.5885e-06,-2.47e-06,0.0,0 STARLINK-5431,1 54792U 22175AL  24107.61031386 -.00000247  00000-0  25885-5 0  9993,2 54792  53.2163 270.6241 0001388  93.5691 266.5460 15.08851402 75447,6917.846,95.437,540.671,538.75,0.0
54792.0,STARLINK-5431,PAYLOAD,2024-04-16 17:49:37,15.08853516,0.0001023,53.2185,270.0356,94.9881,265.1228,6.7688e-05,7.9e-06,0.0,0 STARLINK-5431,1 54792U 22175AL  24107.74279171  .00000790  00000-0  67688-4 0  9991,2 54792  53.2185 270.0356 0001023  94.9881 265.1228 15.08853516 73302,6917.839,95.437,540.412,538.996,0.0
54792.0,STARLINK-5431,PAYLOAD,2024-04-17 14:29:38,15.08839306,0.0001179,53.217,266.1661,87.2768,272.8359,1.2127e-05,-9.5e-07,0.0,0 STARLINK-5431,1 54792U 22175AL  24108.60391708 -.00000095  00000-0  12127-4 0  9995,2 54792  53.2170 266.1661 0001179  87.2768 272.8359 15.08839306 75596,6917.883,95.438,540.563,538.932,0.0
54792.0,STARLINK-5431,PAYLOAD,2024-04-17 17:40:24,15.08834918,0.0001138,53.2156,265.5697,74.4076,285.7042,-5.1202e-05,-1.102e-05,0.0,0 STARLINK-5431,1 54792U 22175AL  24108.73639964 -.00001102  00000-0 -51202-4 0  9996,2 54792  53.2156 265.5697 0001138  74.4076 285.7042 15.08834918 73456,6917.896,95.438,540.548,538.974,0.0
54792.0,STARLINK-5431,PAYLOAD,2024-04-18 14:20:25,15.08834473,0.0001208,53.2156,261.7037,84.038,276.075,-1.3836e-05,-5.08e-06,0.0,0 STARLINK-5431,1 54792U 22175AL  24109.59752248 -.00000508  00000-0 -13836-4 0  9992,2 54792  53.2156 261.7037 0001208  84.0380 276.0750 15.08834473 75744,6917.897,95.438,540.598,538.927,0.0
54792.0,STARLINK-5431,PAYLOAD,2024-04-18 17:31:11,15.08842209,0.0001291,53.2159,261.1093,72.3012,287.8121,0.00011166,1.49e-05,0.0,0 STARLINK-5431,1 54792U 22175AL  24109.72999913  .00001490  00000-0  11166-3 0  9991,2 54792  53.2159 261.1093 0001291  72.3012 287.8121 15.08842209 75767,6917.874,95.437,540.632,538.846,0.0
54792.0,STARLINK-5431,PAYLOAD,2024-04-19 14:11:13,15.08834407,0.0001726,53.2166,257.246,64.6021,295.5149,0.00024168,3.56e-05,0.0,0 STARLINK-5431,1 54792U 22175AL  24110.59112895  .00003560  00000-0  24168-3 0  9990,2 54792  53.2166 257.2460 0001726  64.6021 295.5149 15.08834407 75897,6917.897,95.438,540.957,538.568,0.0
54792.0,STARLINK-5431,PAYLOAD,2024-04-19 17:21:59,15.08840648,0.000147,53.2159,256.6522,78.3748,281.7409,0.00025009,3.695e-05,0.0,0 STARLINK-5431,1 54792U 22175AL  24110.72360518  .00003695  00000-0  25009-3 0  9996,2 54792  53.2159 256.6522 0001470  78.3748 281.7409 15.08840648 73758,6917.878,95.438,540.76,538.726,0.0
54792.0,STARLINK-5431,PAYLOAD,2024-04-20 09:15:50,15.08854559,0.0001573,53.2169,253.6753,75.3068,284.8099,0.0002196,3.21e-05,0.0,0 STARLINK-5431,1 54792U 22175AL  24111.38599748  .00003210  00000-0  21960-3 0  9993,2 54792  53.2169 253.6753 0001573  75.3068 284.8099 15.08854559 73854,6917.836,95.437,540.789,538.613,0.0
54792.0,STARLINK-5431,PAYLOAD,2024-04-20 14:01:59,15.08854669,0.0001569,53.2161,252.7825,76.6127,283.504,0.00028944,4.323e-05,0.0,0 STARLINK-5431,1 54792U 22175AL  24111.58471699  .00004323  00000-0  28944-3 0  9994,2 54792  53.2161 252.7825 0001569  76.6127 283.5040 15.08854669 76049,6917.836,95.437,540.786,538.615,0.0
54792.0,STARLINK-5431,PAYLOAD,2024-04-20 15:37:22,15.08858376,0.0001723,53.2157,252.4848,70.0265,290.0912,0.00036815,5.579e-05,0.0,0 STARLINK-5431,1 54792U 22175AL  24111.65095604  .00005579  00000-0  36815-3 0  9990,2 54792  53.2157 252.4848 0001723  70.0265 290.0912 15.08858376 76050,6917.824,95.436,540.881,538.497,0.0
54792.0,STARLINK-5431,PAYLOAD,2024-04-21 13:52:46,15.08842829,0.0001651,53.216,248.3137,136.1543,223.958,-3.3109e-05,-8.15e-06,0.0,0 STARLINK-5431,1 54792U 22175AL  24112.57831412 -.00000815  00000-0 -33109-4 0  9991,2 54792  53.2160 248.3137 0001651 136.1543 223.9580 15.08842829 76199,6917.872,95.437,540.879,538.595,0.0
54792.0,STARLINK-5431,PAYLOAD,2024-04-21 18:38:56,15.0883793,0.0001641,53.2156,247.4265,114.0985,246.0179,-7.7518e-05,-1.521e-05,0.0,0 STARLINK-5431,1 54792U 22175AL  24112.77703830 -.00001521  00000-0 -77518-4 0  9992,2 54792  53.2156 247.4265 0001641 114.0985 246.0179 15.08837930 74061,6917.887,95.438,540.887,538.616,0.0
54792.0,STARLINK-5431,PAYLOAD,2024-04-22 08:57:24,15.08837598,0.0001988,53.2163,244.7493,120.7852,239.3336,-9.6329e-05,-1.821e-05,0.0,0 STARLINK-5431,1 54792U 22175AL  24113.37320061 -.00001821  00000-0 -96329-4 0  9994,2 54792  53.2163 244.7493 0001988 120.7852 239.3336 15.08837598 76313,6917.888,95.438,541.128,538.377,0.0
54792.0,STARLINK-5431,PAYLOAD,2024-04-22 15:18:57,15.08840525,0.0001881,53.2168,243.5608,103.3127,256.8075,0.00014906,2.085e-05,0.0,0 STARLINK-5431,1 54792U 22175AL  24113.63816268  .00002085  00000-0  14906-3 0  9993,2 54792  53.2168 243.5608 0001881 103.3127 256.8075 15.08840525 76359,6917.879,95.438,541.045,538.443,0.0
54792.0,STARLINK-5431,PAYLOAD,2024-04-23 04:02:02,15.08843495,0.0001565,53.2154,241.1887,99.7609,260.356,0.00055395,8.54e-05,0.0,0 STARLINK-5431,1 54792U 22175AL  24114.16808327  .00008540  00000-0  55395-3 0  9998,2 54792  53.2154 241.1887 0001565  99.7609 260.3560 15.08843495 74276,6917.87,95.437,540.817,538.652,0.0
54792.0,STARLINK-5431,PAYLOAD,2024-04-23 11:58:59,15.08813865,0.0001428,53.2166,239.7041,68.4823,291.6321,-0.00022839,-3.918e-05,0.0,0 STARLINK-5431,1 54792U 22175AL  24114.49929642 -.00003918  00000-0 -22839-3 0  9991,2 54792  53.2166 239.7041 0001428  68.4823 291.6321 15.08813865 74329,6917.96,95.439,540.813,538.837,0.0
54792.0,STARLINK-5431,PAYLOAD,2024-04-23 13:34:22,15.08815592,0.0001575,53.2164,239.407,81.4903,278.6267,-0.00021936,-3.775e-05,0.0,0 STARLINK-5431,1 54792U 22175AL  24114.56553607 -.00003775  00000-0 -21936-3 0  9991,2 54792  53.2164 239.4070 0001575  81.4903 278.6267 15.08815592 76496,6917.955,95.439,540.91,538.73,0.0
54792.0,STARLINK-5431,PAYLOAD,2024-04-23 15:09:45,15.08827808,0.000152,53.2163,239.0999,98.8453,261.2712,5.9278e-05,6.55e-06,0.0,0 STARLINK-5431,1 54792U 22175AL  24114.63177328  .00000655  00000-0  59278-4 0  9994,2 54792  53.2163 239.0999 0001520  98.8453 261.2712 15.08827808 74341,6917.918,95.438,540.834,538.731,0.0
54792.0,STARLINK-5431,PAYLOAD,2024-04-24 13:25:09,15.08840058,0.0001374,53.2163,234.937,91.8086,268.3064,0.00049303,7.567e-05,0.0,0 STARLINK-5431,1 54792U 22175AL  24115.55913648  .00007567  00000-0  49303-3 0  9995,2 54792  53.2163 234.9370 0001374  91.8086 268.3064 15.08840058 76645,6917.88,95.438,540.696,538.795,0.0
54792.0,STARLINK-5431,PAYLOAD,2024-04-24 15:00:32,15.08841425,0.000131,53.2166,234.6406,85.0319,275.0822,0.00063395,9.816e-05,0.0,0 STARLINK-5431,1 54792U 22175AL  24115.62537716  .00009816  00000-0  63395-3 0  9997,2 54792  53.2166 234.6406 0001310  85.0319 275.0822 15.08841425 74496,6917.876,95.437,540.647,538.835,0.0
54792.0,STARLINK-5431,PAYLOAD,2024-04-25 11:40:33,15.08837243,0.0001316,53.2165,230.7777,83.4053,276.7089,0.00011046,1.47e-05,0.0,0 STARLINK-5431,1 54792U 22175AL  24116.48649911  .00001470  00000-0  11046-3 0  9997,2 54792  53.2165 230.7777 0001316  83.4053 276.7089 15.08837243 74627,6917.889,95.438,540.664,538.843,0.0
54792.0,STARLINK-5431,PAYLOAD,2024-04-25 13:15:56,15.08834032,0.0001306,53.2167,230.4785,85.0153,275.0988,0.00011238,1.501e-05,0.0,0 STARLINK-5431,1 54792U 22175AL  24116.55274078  .00001501  00000-0  11238-3 0  9991,2 54792  53.2167 230.4785 0001306  85.0153 275.0988 15.08834032 76796,6917.899,95.438,540.667,538.86,0.0
54792.0,STARLINK-5431,PAYLOAD,2024-04-26 13:06:43,15.08847407,0.0001295,53.2157,226.0197,84.3907,275.7233,0.00032919,4.956e-05,0.0,0 STARLINK-5431,1 54792U 22175AL  24117.54633776  .00004956  00000-0  32919-3 0  9991,2 54792  53.2157 226.0197 0001295  84.3907 275.7233 15.08847407 74786,6917.858,95.437,540.619,538.827,0.0
54792.0,STARLINK-5431,PAYLOAD,2024-04-26 14:42:06,15.08852017,0.0001364,53.2163,225.7232,90.2115,269.9034,0.00045368,6.942e-05,0.0,0 STARLINK-5431,1 54792U 22175AL  24117.61257653  .00006942  00000-0  45368-3 0  9994,2 54792  53.2163 225.7232 0001364  90.2115 269.9034 15.08852017 76951,6917.844,95.437,540.652,538.765,0.0
54792.0,STARLINK-5431,PAYLOAD,2024-04-27 12:57:30,15.08835927,0.0001443,53.2141,221.5629,71.6015,288.5134,-0.00035807,-5.981e-05,0.0,0 STARLINK-5431,1 54792U 22175AL  24118.53993259 -.00005981  00000-0 -35807-3 0  9996,2 54792  53.2141 221.5629 0001443  71.6015 288.5134 15.08835927 74936,6917.893,95.438,540.756,538.76,0.0
54792.0,STARLINK-5431,PAYLOAD,2024-04-27 14:32:53,15.08841056,0.0001517,53.2147,221.2658,69.6813,290.4342,-2.8116e-05,-7.35e-06,0.0,0 STARLINK-5431,1 54792U 22175AL  24118.60617233 -.00000735  00000-0 -28116-4 0  9997,2 54792  53.2147 221.2658 0001517  69.6813 290.4342 15.08841056 77101,6917.877,95.437,540.792,538.693,0.0
54792.0,STARLINK-5431,PAYLOAD,2024-04-27 16:08:16,15.08849913,0.0001439,53.2148,220.9656,74.0878,286.0273,0.00045377,6.943e-05,0.0,0 STARLINK-5431,1 54792U 22175AL  24118.67241048  .00006943  00000-0  45377-3 0  9993,2 54792  53.2148 220.9656 0001439  74.0878 286.0273 15.08849913 74954,6917.85,95.437,540.711,538.72,0.0
54792.0,STARLINK-5431,PAYLOAD,2024-04-28 12:48:18,15.08819496,0.0001391,53.2146,217.1002,78.2774,281.8374,-6.7267e-05,-1.358e-05,0.0,0 STARLINK-5431,1 54792U 22175AL  24119.53354297 -.00001358  00000-0 -67267-4 0  9990,2 54792  53.2146 217.1002 0001391  78.2774 281.8374 15.08819496 75086,6917.943,95.439,540.77,538.846,0.0
